BEIDOU IGSO 6           
1 41434U 16021A   17345.73728163 -.00000179  00000-0  10000-3 0  9995
2 41434  55.7784  70.4507 0032102 183.7275 188.2995  1.00271146  6312
